GORIZONT 1 [-]          
1 11158U 78118A   22356.97833383 -.00000106  00000+0  00000+0 0  9999
2 11158  11.0836 197.8811 3432196 291.6082  35.5497  1.00304745110186
GORIZONT 2 [-]          
1 11440U 79062A   22357.41720748 -.00000014  00000+0  00000+0 0  9990
2 11440   8.8447 299.6635 0003668 305.5776  65.6526  1.00303944125270
GORIZONT 3 [-]          
1 11648U 79105A   22357.88799347 -.00000209  00000+0  00000+0 0  9996
2 11648   9.0061 301.1212 0012672 220.1356 339.2071  1.00341409109710
GORIZONT 4 [-]          
1 11841U 80049A   22358.20616295 -.00000052  00000+0  00000+0 0  9993
2 11841  10.1645 307.0152 0001243 330.1906 175.0891  0.98628615221016
GORIZONT 5 [-]          
1 13092U 82020A   22357.82196002 -.00000106  00000+0  00000+0 0  9990
2 13092  11.1719 312.3524 0033737 216.7951 159.6166  0.98531988109073
GORIZONT 6 [-]          
1 13624U 82103A   22358.15921053  .00000143  00000+0  00000+0 0  9992
2 13624  10.0981 312.4108 0001024 273.1776 126.2913  1.00328698108196
GORIZONT 7 [-]          
1 14160U 83066A   22357.65420966 -.00000181  00000+0  00000+0 0  9991
2 14160  11.7854 321.8738 0010037 320.5395 223.5913  0.98349890142248
GORIZONT 8 [-]          
1 14532U 83118A   22358.09215944 -.00000097  00000+0  00000+0 0  9995
2 14532  11.9650 323.7412 0029680 153.1860  34.4580  0.98270331108040
GORIZONT 9 [-]          
1 14940U 84041A   22357.48824712  .00000018  00000+0  00000+0 0  9997
2 14940  11.1553 321.7538 0004497 219.6663 151.7797  1.00227348109196
GORIZONT 10 [-]         
1 15144U 84078A   22357.65656312  .00000108  00000+0  00000+0 0  9992
2 15144  11.2543 322.7783 0000170 171.1645  24.8616  1.00258100141828
GORIZONT 11 [-]         
1 15484U 85007A   22358.31993927 -.00000336  00000+0  00000+0 0  9996
2 15484  11.4402 324.7658 0002747 158.4835 211.1956  1.00337941139887
GORIZONT 12 [-]         
1 16769U 86044A   22357.79566468  .00000132  00000+0  00000+0 0  9995
2 16769  12.0812 330.1741 0001592 253.7637 198.5567  1.00238742134516
GORIZONT 13 [-]         
1 17083U 86090A   22357.52389769 -.00000061  00000+0  00000+0 0  9996
2 17083  13.9818 337.4010 0013805 340.5441 207.5034  0.96725552106343
GORIZONT 14 [-]         
1 17969U 87040A   22357.69007948 -.00000141  00000+0  00000+0 0  9998
2 17969  12.8915 328.7509 0030881 178.0623 201.8324  0.97659827107440
GORIZONT 15 [-]         
1 19017U 88028A   22358.16354771 -.00000100  00000+0  00000+0 0  9998
2 19017  14.2839 340.1921 0036912 160.1105 220.1585  0.97827624107053
GORIZONT 16 [-]         
1 19397U 88071A   22357.79312670 -.00000215  00000+0  00000+0 0  9994
2 19397  13.1332 338.8725 0013489  63.4233 131.0240  0.99990121125511
GORIZONT 17 [-]         
1 19765U 89004A   22357.68959875 -.00000197  00000+0  00000+0 0  9991
2 19765  13.6933 342.2402 0022528 136.3335 217.6087  0.99068891122977
GORIZONT 18 [-]         
1 20107U 89052A   22358.26160537 -.00000255  00000+0  00000+0 0  9995
2 20107  13.7425 343.4898 0033993 320.6955  43.4940  0.99405716121773
GORIZONT 19 [-]         
1 20263U 89081A   22357.66160279 -.00000220  00000+0  00000+0 0  9998
2 20263  13.4707 342.6685 0003897 215.5409 218.4551  1.00351768 34592
GORIZONT 20 [-]         
1 20659U 90054A   22358.42529979 -.00000212  00000+0  00000+0 0  9991
2 20659  13.9182 345.4777 0006666 171.8346 176.5149  1.00232088118949
GORIZONT 21 [-]         
1 20923U 90094A   22357.82405199 -.00000289  00000+0  00000+0 0  9993
2 20923  13.9360 346.2503 0004689 210.1520 142.9611  1.00345139117695
GORIZONT 22 [-]         
1 20953U 90102A   22358.36271521 -.00000328  00000+0  00000+0 0  9990
2 20953  13.8956 346.6168 0002441  23.1308 348.1293  1.00234708117661
GORIZONT 23 [-]         
1 21533U 91046A   22357.66032347 -.00000144  00000+0  00000+0 0  9992
2 21533  14.6770 350.7916 0004074 310.6067 138.6848  0.98907981 34118
GORIZONT 24 [-]         
1 21759U 91074A   22357.76043975 -.00000207  00000+0  00000+0 0  9993
2 21759  14.8409 352.7082 0018130 228.1691 136.5454  0.98445262112520
GORIZONT 25 [-]         
1 21922U 92017A   22357.65760911  .00000052  00000+0  00000+0 0  9994
2 21922  14.3809 352.0191 0028392  85.2290  86.3621  0.99855336112248
GORIZONT 26 [-]         
1 22041U 92043A   22357.79277804 -.00000293  00000+0  00000+0 0  9993
2 22041  14.5610 354.0376 0031372 238.4276 298.9512  0.99247141110852
GORIZONT 27 [-]         
1 22245U 92082A   22357.69975744  .00000116  00000+0  00000+0 0  9992
2 22245  14.4770 353.6085 0011717  10.6394   6.6558  1.00177377114380
GORIZONT 28 [-]         
1 22880U 93069A   22357.82588245 -.00000285  00000+0  00000+0 0  9992
2 22880  14.6362 357.4845 0033903 136.1562 215.8433  0.99655893106470
GORIZONT 29 [-]         
1 22907U 93072A   22353.29782531 -.00000284  00000+0  00000+0 0  9996
2 22907  14.5471 356.9681 0009623 345.3012 166.5752  1.00145719106399
GORIZONT 30 [-]         
1 23108U 94030A   22357.86196885 -.00000286  00000+0  00000+0 0  9995
2 23108  14.5620 357.8310 0001677 194.8993 351.2234  1.00247120104748
GORIZONT 31 [-]         
1 23775U 96005A   22357.56355785 -.00000099  00000+0  00000+0 0  9994
2 23775  14.5057   4.0768 0018802 204.1998 170.1380  0.99881438 98350
GORIZONT 32 [-]         
1 23880U 96034A   22356.29169819  .00000021  00000+0  00000+0 0  9997
2 23880  14.4584   4.5953 0008005 357.2158  13.5170  1.00210430 97283
GORIZONT 33 [-]         
1 26372U 00029A   22357.83006639 -.00000160  00000+0  00000+0 0  9991
2 26372  13.2272  15.8445 0002256 104.1297 252.1080  1.00294729 82670
